STARLINK-5050           
1 53890U 22119E   23349.17701761  .00000488  00000+0  48762-4 0  9991
2 53890  53.2176 349.8812 0001390  98.6382 261.4768 15.08840528 68644
STARLINK-5041           
1 53891U 22119F   23348.41390946  .00000186  00000+0  29761-4 0  9990
2 53891  53.2190  28.6011 0001576 106.1222 253.9943 15.08837916 68455
STARLINK-5046           
1 53892U 22119G   23348.39548553  .00000862  00000+0  72240-4 0  9998
2 53892  53.2180  28.4879 0001536  72.2112 287.9047 15.08843498 68456
STARLINK-5052           
1 53893U 22119H   23348.39482514  .00000228  00000+0  31267-4 0  9993
2 53893  53.2181  28.4913 0001512  84.2794 275.8371 15.10480771 68450
STARLINK-5043           
1 53894U 22119J   23348.41022415  .00000256  00000+0  34169-4 0  9992
2 53894  53.2194  28.5784 0001609 105.9333 254.1836 15.08839645 68450
STARLINK-5032           
1 53895U 22119K   23348.39916704 -.00003948  00000+0 -23010-3 0  9998
2 53895  53.2182  28.5088 0001528 118.6738 241.4408 15.08839444 68456
STARLINK-5037           
1 53896U 22119L   23348.39181695  .00000634  00000+0  57936-4 0  9994
2 53896  53.2197  28.4658 0001759  79.2292 280.8898 15.08837121 68032
STARLINK-5035           
1 53897U 22119M   23348.40654001  .00000485  00000+0  48578-4 0  9999
2 53897  53.2197  28.5591 0001529 108.2432 251.8727 15.08839698 68450
STARLINK-5044           
1 53898U 22119N   23348.38075157  .00000633  00000+0  57891-4 0  9999
2 53898  53.2191  28.3966 0001989  62.7202 297.3993 15.08841667 68457
STARLINK-5042           
1 53899U 22119P   23348.38443278  .00000955  00000+0  78099-4 0  9993
2 53899  53.2191  28.4163 0001786  70.0491 290.0693 15.08845507 68459
STARLINK-5045           
1 53900U 22119Q   23348.96954124  .00001402  00000+0  10615-3 0  9994
2 53900  53.2182  25.6789 0001466  88.2131 271.9029 15.08842071 68120
STARLINK-5024           
1 53901U 22119R   23348.38811989  .00001529  00000+0  11411-3 0  9997
2 53901  53.2183  28.4396 0001881  60.3026 299.8154 15.08842137 68459
STARLINK-5021           
1 53902U 22119S   23349.16918930 -.00001476  00000+0 -74653-4 0  9990
2 53902  53.2181 334.8891 0001434  84.8535 275.2621 15.08856292 68850
STARLINK-5022           
1 53903U 22119T   23348.38907567  .00000524  00000+0  51006-4 0  9996
2 53903  53.2188  28.4405 0002013  61.2837 298.8357 15.08843804 68451
STARLINK-4787           
1 53904U 22119U   23348.43593281  .00000949  00000+0  77710-4 0  9998
2 53904  53.2181  28.0333 0001437  89.4095 270.7062 15.08842447 68463
STARLINK-5003           
1 53905U 22119V   23348.35965030  .00000421  00000+0  44547-4 0  9992
2 53905  53.2192  18.9928 0001831  67.1961 292.9224 15.08841226 68580
STARLINK-5054           
1 53906U 22119W   23348.41070409  .00000755  00000+0  68215-4 0  9995
2 53906  53.2189  18.5998 0001583  78.8782 281.2388 15.07207933 68597
STARLINK-5063           
1 53907U 22119X   23348.43224936  .00000577  00000+0  54342-4 0  9992
2 53907  53.2181  28.0096 0001517  79.4377 280.6786 15.08840793 68468
STARLINK-5057           
1 53908U 22119Y   23348.41851897  .00000989  00000+0  80232-4 0  9997
2 53908  53.2189  18.6488 0001860  63.0123 297.1059 15.08841981 68596
STARLINK-4796           
1 53909U 22119Z   23348.29709207  .00000053  00000+0  21429-4 0  9996
2 53909  53.2183  19.3134 0001526  83.5167 276.5999 15.08841802 68575
STARLINK-5056           
1 53910U 22119AA  23348.94107409  .00001915  00000+0  13843-3 0  9994
2 53910  53.2176  16.2300 0001753  84.4719 275.6473 15.08834231 68255
STARLINK-5048           
1 53911U 22119AB  23348.35596459  .00001277  00000+0  98329-4 0  9991
2 53911  53.2182  18.9709 0001667  68.6782 291.4388 15.08841967 68584
STARLINK-5059           
1 53912U 22119AC  23348.37061404  .00000525  00000+0  51089-4 0  9998
2 53912  53.2191  18.3647 0001704 102.3719 257.7464 15.08842785 68598
STARLINK-5053           
1 53913U 22119AD  23348.99994337  .00000534  00000+0  51625-4 0  9993
2 53913  53.2164  15.8816 0001576  94.1776 265.9396 15.08852266 68261
STARLINK-5040           
1 53914U 22119AE  23348.40009495  .00000752  00000+0  65352-4 0  9996
2 53914  53.2196  18.5348 0001458  89.8187 270.2973 15.08842444 68596
STARLINK-5017           
1 53915U 22119AF  23348.41483558  .00000437  00000+0  45555-4 0  9997
2 53915  53.2191  18.6257 0001861  66.7067 293.4121 15.08840219 68591
STARLINK-5051           
1 53916U 22119AG  23348.29886409  .00001107  00000+0  87633-4 0  9994
2 53916  53.2189 358.6970 0001840  67.7154 292.4033 15.08841445 68877
STARLINK-5036           
1 53917U 22119AH  23348.67243712 -.00000721  00000+0 -27238-4 0  9999
2 53917  53.2180  17.3941 0001579  70.3538 289.7625 15.08824665 68210
STARLINK-5012           
1 53918U 22119AJ  23348.33017258  .00000977  00000+0  79487-4 0  9991
2 53918  53.2190  18.8077 0001591 110.8623 249.2540 15.08838967 68584
STARLINK-5023           
1 53919U 22119AK  23348.32648848  .00001129  00000+0  89033-4 0  9994
2 53919  53.2196  18.7881 0001643 105.0562 255.0612 15.08837816 68586
STARLINK-5025           
1 53920U 22119AL  23348.41210595  .00001280  00000+0  98508-4 0  9995
2 53920  53.2189  18.6016 0001460  86.4140 273.7019 15.08842598 68592
STARLINK-5002           
1 53922U 22119AN  23348.38167001  .00000808  00000+0  68854-4 0  9992
2 53922  53.2190  18.4206 0001551 107.3725 252.7437 15.08841381 68598
STARLINK-5004           
1 53923U 22119AP  23348.32280298  .00000219  00000+0  31829-4 0  9999
2 53923  53.2191  18.7632 0001570  98.0240 262.0930 15.08835912 68589
STARLINK-5001           
1 53924U 22119AQ  23348.39503311  .00000860  00000+0  72113-4 0  9994
2 53924  53.2171  13.5271 0001460  91.9152 268.2007 15.08837739 68663
STARLINK-5011           
1 53925U 22119AR  23348.96309594  .00000002  00000+0  18231-4 0  9994
2 53925  53.2193  15.6656 0001681 113.0810 247.0359 15.08835285 68265
STARLINK-5014           
1 53926U 22119AS  23348.38397662  .00001799  00000+0  13112-3 0  9990
2 53926  53.2184  13.4466 0001620  94.0115 266.1062 15.08833678 68672
STARLINK-5008           
1 53927U 22119AT  23348.40240258  .00000977  00000+0  79500-4 0  9993
2 53927  53.2186  13.5765 0001747  70.6237 289.4944 15.08841732 68669
STARLINK-5009           
1 53928U 22119AU  23349.18853176  .00000054  00000+0  21479-4 0  9997
2 53928  53.2184   4.9500 0001267  65.6161 294.4963 15.08841801 68435
STARLINK-5018           
1 53929U 22119AV  23348.37798600  .00000616  00000+0  56808-4 0  9996
2 53929  53.2191  18.3950 0001806 103.7975 256.3218 15.08838930 68594
STARLINK-5010           
1 53930U 22119AW  23348.37891361  .00001389  00000+0  10537-3 0  9992
2 53930  53.2187   8.4269 0001582  78.9169 281.2001 15.08840891 68735
STARLINK-5015           
1 53931U 22119AX  23348.96632617  .00000016  00000+0  19092-4 0  9997
2 53931  53.2173   0.7211 0001509  88.4995 271.6170 15.08841211 68473
STARLINK-4772           
1 53932U 22119AY  23349.20557643  .00000592  00000+0  55270-4 0  9998
2 53932  53.2194   0.0649 0001535 104.6623 255.4539 15.08837938 68507
STARLINK-4782           
1 53933U 22119AZ  23349.18485119  .00003175  00000+0  21758-3 0  9997
2 53933  53.2187   4.9250 0001683  75.1625 284.9554 15.08823432 68439
STARLINK-4775           
1 53934U 22119BA  23349.20189007  .00000313  00000+0  37736-4 0  9993
2 53934  53.2195   0.0377 0001707 109.1460 250.9717 15.08837088 68502
STARLINK-5000           
1 53935U 22119BB  23349.18438960  .00000839  00000+0  70797-4 0  9993
2 53935  53.2195 349.9463 0001578  99.9277 260.1893 15.08839309 68643
STARLINK-4791           
1 53936U 22119BC  23348.31129340  .00000197  00000+0  30466-4 0  9993
2 53936  53.2201   3.7196 0002005  63.6298 296.4900 15.08840215 68804
STARLINK-4765           
1 53937U 22119BD  23349.18946044  .00004632  00000+0  30917-3 0  9996
2 53937  53.2192 354.9822 0001857 111.3897 248.7293 15.08814826 68579
STARLINK-4633           
1 53964U 22125A   23349.10023559  .00000713  00000+0  62864-4 0  9995
2 53964  53.2181 285.6000 0001983 105.2479 254.8733 15.08848343 66265
STARLINK-4578           
1 53965U 22125B   23349.09751815  .00002775  00000+0  19229-3 0  9993
2 53965  53.2177 285.5841 0002712  78.5369 281.5928 15.08858697 66260
STARLINK-4635           
1 53966U 22125C   23349.09286776  .00001647  00000+0  12154-3 0  9990
2 53966  53.2161 285.5586 0001445  80.7979 279.3176 15.08848173 66262
STARLINK-4634           
1 53967U 22125D   23348.16183264  .00002261  00000+0  16009-3 0  9992
2 53967  53.2167 289.6973 0002004  81.9670 278.1549 15.08842375 66053
STARLINK-4629           
1 53968U 22125E   23349.14437250  .00001633  00000+0  12064-3 0  9998
2 53968  53.2181 285.1660 0001859  87.0335 273.0870 15.08847899 66277
STARLINK-4468           
1 53969U 22125F   23349.15173787  .00001986  00000+0  14279-3 0  9993
2 53969  53.2177 285.2124 0001903  93.4302 266.6908 15.08851557 66270
STARLINK-4567           
1 53970U 22125G   23348.09421336  .00000586  00000+0  54888-4 0  9999
2 53970  53.2176 285.0110 0001796  69.2034 290.9151 15.08843025 66122
STARLINK-4639           
1 53971U 22125H   23349.14806864  .00009644  00000+0  62332-3 0  9996
2 53971  53.2175 285.1921 0002025  67.4496 292.6711 15.08831619 66274
STARLINK-5157           
1 53972U 22125J   23349.14299228  .00001328  00000+0  10148-3 0  9996
2 53972  53.2174 280.1764 0001664  72.7344 287.3830 15.08846923 66348
STARLINK-5156           
1 53973U 22125K   23349.14069801  .00009482  00000+0  61350-3 0  9999
2 53973  53.2180 285.1427 0002639  93.2662 266.8632 15.08810679 66274
STARLINK-5159           
1 53974U 22125L   23349.04314379 -.00001394  00000+0 -69473-4 0  9993
2 53974  53.2190 265.3079 0002300  75.9235 284.2012 15.08849714 66545
STARLINK-5137           
1 53975U 22125M   23349.04358993  .00000608  00000+0  56273-4 0  9993
2 53975  53.2171 280.2759 0001786  92.3773 267.7424 15.08843183 66337
